{"type":"FeatureCollection","properties":{"source":"dialect_areas.csv","simplify_deg":0.0005},"features":[{"type":"Feature","properties":{"dialect":"frr-x-mooring","label":"Mooring"},"geometry":{"type":"Polygon","coordinates":[[[8.7023541,54.7347997],[8.7216243,54.7412244],[8.7238501,54.7405695],[8.7419212,54.7503019],[8.754738,54.7527347],[8.759453,54.750739],[8.7613326,54.7488693],[8.7603636,54.7432744],[8.7573926,54.7419795],[8.7613822,54.7382506],[8.7634115,54.7334317],[8.7659485,54.7322694],[8.7652632,54.7299558],[8.7681587,54.7245997],[8.7807613,54.7247522],[8.7857085,54.7218247],[8.7874948,54.7216265],[8.7888478,54.725159],[8.7906664,54.7265676],[8.7981169,54.7385657],[8.8129399,54.7545137],[8.8128054,54.759835],[8.8021582,54.7639109],[8.81364,54.7769805],[8.8140147,54.7783645],[8.8185327,54.7795164],[8.8210379,54.7819966],[8.8126708,54.7841178],[8.8107534,54.7857808],[8.8016652,54.789574],[8.7988437,54.7897807],[8.7972692,54.7912368],[8.7835682,54.7909949],[8.7758056,54.7925388],[8.7603918,54.7990355],[8.751503,54.8055174],[8.7564193,54.8099638],[8.7544637,54.8115085],[8.754576,54.8124314],[8.7587816,54.8195501],[8.7605054,54.8208608],[8.7562165,54.8245452],[8.7577415,54.826046],[8.7604527,54.8264952],[8.7631726,54.8362507],[8.7662815,54.8398086],[8.7937098,54.8408257],[8.7981459,54.8386676],[8.7990138,54.8374612],[8.8027681,54.8366373],[8.8031106,54.8372774],[8.8010923,54.8384113],[8.8296846,54.835106],[8.8334494,54.8340636],[8.8336398,54.8363222],[8.8427307,54.8372927],[8.8480292,54.8366593],[8.8476512,54.8385039],[8.8587663,54.8348129],[8.8606511,54.8367035],[8.8715982,54.8363867],[8.8720832,54.8307444],[8.8609875,54.8307538],[8.8529758,54.8291598],[8.8457289,54.8291134],[8.8334863,54.8263052],[8.82948,54.8270803],[8.8295086,54.8262009],[8.8276378,54.8246667],[8.8223314,54.8266453],[8.8212621,54.8278389],[8.8213875,54.8293733],[8.8152293,54.8291934],[8.8142715,54.8242915],[8.8131932,54.8242412],[8.813952,54.8223701],[8.8112888,54.8180834],[8.8303304,54.8136031],[8.8545059,54.7992466],[8.8765268,54.7880586],[8.9003224,54.7826446],[8.9094818,54.7790499],[8.9147344,54.783362],[8.9195741,54.7786426],[8.9222487,54.7726384],[8.9183527,54.7728891],[8.9230239,54.7659279],[8.9044783,54.7610614],[8.8966181,54.755777],[8.8956567,54.753558],[8.9017073,54.7517055],[8.9011159,54.7509634],[8.9033514,54.7503513],[8.8986942,54.7497068],[8.9001037,54.7462946],[8.8945158,54.7484345],[8.890627,54.7462242],[8.8887184,54.7464527],[8.8867535,54.7441339],[8.8908557,54.7395271],[8.8864319,54.738234],[8.8894179,54.7375522],[8.889657,54.7368007],[8.8782501,54.7397453],[8.8710726,54.7405799],[8.8603265,54.733621],[8.8632496,54.7320557],[8.8555804,54.7271392],[8.851312,54.7253225],[8.8502517,54.723752],[8.8478139,54.7229508],[8.8440951,54.7195457],[8.8406476,54.7178244],[8.8430807,54.7165043],[8.841591,54.7154786],[8.8501719,54.7096122],[8.8515908,54.7029427],[8.8551804,54.6976401],[8.8479715,54.6890925],[8.8444669,54.6875893],[8.8406085,54.6878088],[8.8337277,54.6934292],[8.8269346,54.6946136],[8.8252371,54.6936582],[8.824956,54.6923515],[8.8232468,54.69298],[8.8113274,54.6862637],[8.7695142,54.6840822],[8.7513589,54.6814713],[8.7513728,54.6821082],[8.7532859,54.6824805],[8.7535478,54.6840638],[8.7500164,54.6908675],[8.7519535,54.6988003],[8.7473443,54.7031051],[8.7406058,54.7157606],[8.7311432,54.7194725],[8.7201384,54.7251898],[8.7122252,54.7235228],[8.6933222,54.7251165],[8.692587,54.725633],[8.6919298,54.7295403],[8.6869931,54.7305306],[8.68944,54.7320913],[8.6939726,54.7303909],[8.7023541,54.7347997]]]}},{"type":"Feature","properties":{"dialect":"frr-x-wieding","label":"Wiedingharder"},"geometry":{"type":"Polygon","coordinates":[[[8.751503,54.8055174],[8.7615554,54.7984383],[8.7758056,54.7925388],[8.7835682,54.7909949],[8.7972692,54.7912368],[8.7988437,54.7897807],[8.8016652,54.789574],[8.8107534,54.7857808],[8.8126708,54.7841178],[8.8210379,54.7819966],[8.8185327,54.7795164],[8.8140147,54.7783645],[8.81364,54.7769805],[8.8021582,54.7639109],[8.8128054,54.759835],[8.8129399,54.7545137],[8.7981169,54.7385657],[8.7906664,54.7265676],[8.7888478,54.725159],[8.7874948,54.7216265],[8.7857085,54.7218247],[8.7807613,54.7247522],[8.7681587,54.7245997],[8.7652632,54.7299558],[8.7659485,54.7322694],[8.7634115,54.7334317],[8.7613822,54.7382506],[8.7573926,54.7419795],[8.7603636,54.7432744],[8.7613326,54.7488693],[8.759453,54.750739],[8.754738,54.7527347],[8.7419212,54.7503019],[8.7238501,54.7405695],[8.7216243,54.7412244],[8.7128841,54.7381371],[8.7067469,54.744002],[8.7068044,54.7505377],[8.7025155,54.7557691],[8.6959104,54.7594001],[8.6951099,54.7636517],[8.6986817,54.7693104],[8.6958554,54.7689011],[8.6964141,54.7703436],[8.695273,54.7716716],[8.6955548,54.7730713],[8.6927749,54.7744628],[8.6917588,54.7773718],[8.6806423,54.7899596],[8.6811383,54.7904443],[8.6773744,54.7928445],[8.666826,54.7928388],[8.6580891,54.7953192],[8.6511903,54.809439],[8.6445698,54.818483],[8.6454039,54.8189009],[8.6086613,54.8410757],[8.6080935,54.8430657],[8.6134613,54.8781076],[8.6125572,54.8801926],[8.6046551,54.8861631],[8.5657753,54.8852549],[8.6000777,54.8864538],[8.6311014,54.8922369],[8.635386,54.8946122],[8.6375586,54.8976181],[8.637064,54.911357],[8.6600324,54.9086696],[8.6685208,54.9113124],[8.6810444,54.9104065],[8.6871246,54.9088386],[8.700891,54.9028466],[8.7076812,54.900917],[8.7098168,54.8988691],[8.7166633,54.8972506],[8.7162641,54.8965019],[8.7174309,54.8959993],[8.7279111,54.8927495],[8.7382142,54.8932409],[8.7499708,54.895572],[8.750317,54.8967016],[8.7549787,54.8968714],[8.7596434,54.8945122],[8.7770446,54.8926579],[8.7764826,54.895482],[8.7813334,54.8972079],[8.7813081,54.8977663],[8.7869607,54.898516],[8.7932306,54.9014709],[8.799141,54.9025539],[8.7990638,54.9046673],[8.8114026,54.9059265],[8.8119371,54.9045811],[8.8188625,54.9039389],[8.8242161,54.9068735],[8.8295682,54.906352],[8.8296978,54.9056369],[8.8333433,54.9066906],[8.8368501,54.9055714],[8.8418492,54.9013158],[8.8484126,54.8976302],[8.8477586,54.8940476],[8.8482372,54.8867406],[8.8416239,54.8880524],[8.8346371,54.8912343],[8.8299292,54.8856612],[8.8380374,54.8804352],[8.840472,54.8775795],[8.8232301,54.8778902],[8.8012673,54.8505762],[8.799343,54.8510827],[8.7939406,54.8494414],[8.7935748,54.8481881],[8.7912857,54.8473584],[8.7935669,54.8447816],[8.7974132,54.8438601],[8.7959349,54.8397286],[8.7937098,54.8408257],[8.7662815,54.8398086],[8.7631726,54.8362507],[8.7604527,54.8264952],[8.7577415,54.826046],[8.7562165,54.8245452],[8.7605054,54.8208608],[8.7587816,54.8195501],[8.754576,54.8124314],[8.7544637,54.8115085],[8.7564193,54.8099638],[8.751503,54.8055174]]]}},{"type":"Feature","properties":{"dialect":"frr-x-karrhard","label":"Karrharder"},"geometry":{"type":"Polygon","coordinates":[[[8.8482132,54.7111295],[8.841591,54.7154786],[8.8430807,54.7165043],[8.8406476,54.7178244],[8.8440951,54.7195457],[8.8478139,54.7229508],[8.8502517,54.723752],[8.851312,54.7253225],[8.8555804,54.7271392],[8.8632496,54.7320557],[8.8603265,54.733621],[8.8710726,54.7405799],[8.8782501,54.7397453],[8.889657,54.7368007],[8.8894179,54.7375522],[8.8864319,54.738234],[8.8908557,54.7395271],[8.8867535,54.7441339],[8.8887184,54.7464527],[8.890627,54.7462242],[8.8945158,54.7484345],[8.9001037,54.7462946],[8.8986942,54.7497068],[8.9033514,54.7503513],[8.9011159,54.7509634],[8.9017073,54.7517055],[8.8956567,54.753558],[8.8967952,54.7559429],[8.9044783,54.7610614],[8.9230239,54.7659279],[8.9183527,54.7728891],[8.9222487,54.7726384],[8.9199666,54.777888],[8.9147344,54.783362],[8.9094818,54.7790499],[8.9003224,54.7826446],[8.8765268,54.7880586],[8.8545059,54.7992466],[8.8303304,54.8136031],[8.8112888,54.8180834],[8.813952,54.8223701],[8.8131932,54.8242412],[8.8142715,54.8242915],[8.8152293,54.8291934],[8.8213875,54.8293733],[8.8212621,54.8278389],[8.8223314,54.8266453],[8.8276378,54.8246667],[8.8295086,54.8262009],[8.82948,54.8270803],[8.8334863,54.8263052],[8.8457289,54.8291134],[8.8529758,54.8291598],[8.8609875,54.8307538],[8.8720832,54.8307444],[8.8716848,54.836344],[8.8606511,54.8367035],[8.8587663,54.8348129],[8.8476512,54.8385039],[8.8480292,54.8366593],[8.8427307,54.8372927],[8.8336398,54.8363222],[8.8334494,54.8340636],[8.8296846,54.835106],[8.8010923,54.8384113],[8.8031106,54.8372774],[8.8027681,54.8366373],[8.7990138,54.8374612],[8.7959349,54.8397286],[8.7974132,54.8438601],[8.7935669,54.8447816],[8.7912857,54.8473584],[8.7935748,54.8481881],[8.7939406,54.8494414],[8.799343,54.8510827],[8.8012673,54.8505762],[8.8232301,54.8778902],[8.840472,54.8775795],[8.8380374,54.8804352],[8.8299292,54.8856612],[8.8346371,54.8912343],[8.8416239,54.8880524],[8.8482372,54.8867406],[8.8477586,54.8940476],[8.8484998,54.8974533],[8.859834,54.8967299],[8.8657964,54.8998714],[8.8728636,54.8993744],[8.8774809,54.9020497],[8.8870365,54.9025866],[8.8918397,54.9049474],[8.8946263,54.9040625],[8.9016361,54.9044744],[8.9105446,54.9038536],[8.913268,54.9031752],[8.9130593,54.9020367],[8.9167287,54.9030866],[8.9211827,54.9025412],[8.9234165,54.9034207],[8.9480753,54.9025382],[8.9569244,54.9013037],[8.9631856,54.8997632],[8.9655588,54.8982815],[8.9774848,54.8958066],[8.9842509,54.8921457],[9.0145097,54.886525],[9.0296927,54.8803951],[9.029214,54.8782348],[9.0478076,54.8720217],[9.0574949,54.8729509],[9.0634548,54.8711691],[9.0760849,54.8718596],[9.0907145,54.8702074],[9.0956216,54.8719938],[9.0993994,54.8719475],[9.1106164,54.874031],[9.1133286,54.8736497],[9.1114886,54.8708709],[9.1115096,54.8644017],[9.1176282,54.8609348],[9.1145568,54.858855],[9.1093146,54.8484401],[9.1096934,54.8400795],[9.1051976,54.835396],[9.1066816,54.8332086],[9.1065772,54.8304955],[9.1053715,54.8292091],[9.099293,54.8297985],[9.077139,54.8169944],[9.092063,54.8140922],[9.09704,54.8157825],[9.0991163,54.8150396],[9.1038607,54.8060693],[9.1114127,54.7964944],[9.1111559,54.7955177],[9.1123012,54.7945228],[9.1115966,54.79116],[9.1178686,54.7883881],[9.1201905,54.7882268],[9.110734,54.7780959],[9.1076045,54.7765482],[9.1107004,54.7684939],[9.0966229,54.764344],[9.0905886,54.7596147],[9.0783075,54.7563265],[9.0801014,54.7453444],[9.0733824,54.7428187],[9.0711181,54.7388236],[9.0753963,54.7371729],[9.0793559,54.7326495],[9.078851,54.7229302],[9.0763805,54.7178089],[9.0822201,54.7126265],[9.082366,54.7098791],[9.080431,54.7068681],[9.0757344,54.7047154],[9.0723938,54.7018394],[9.064896,54.7015432],[9.0539181,54.6981878],[9.0499118,54.6946361],[9.0433179,54.6942145],[9.0402019,54.6952806],[9.0319755,54.6959539],[9.0221895,54.7001881],[9.014186,54.7062892],[9.0104676,54.7077988],[8.9963228,54.7088746],[8.9892987,54.7122511],[8.9860889,54.7130068],[8.9691406,54.7114831],[8.9654062,54.7120891],[8.9589692,54.7161427],[8.9570899,54.7196158],[8.9516975,54.7220824],[8.9508397,54.7234109],[8.9509948,54.7260974],[8.9447485,54.7276179],[8.938981,54.7272299],[8.9367767,54.7287638],[8.93691,54.7308884],[8.9302915,54.7285762],[8.8955609,54.7200764],[8.8891646,54.7194399],[8.8830086,54.7210155],[8.8771912,54.721415],[8.8694033,54.7192517],[8.8670966,54.7194997],[8.8625883,54.7165688],[8.8646583,54.7138997],[8.8659326,54.714471],[8.8661733,54.7132616],[8.8549299,54.7113133],[8.8482132,54.7111295]]]}},{"type":"Feature","properties":{"dialect":"frr-x-nordgoes","label":"Nordergoesharder"},"geometry":{"type":"Polygon","coordinates":[[[8.9967747,54.5653601],[8.9913726,54.5598169],[8.9848312,54.5588604],[8.9652338,54.5603513],[8.9605053,54.5643838],[8.9614547,54.5654619],[8.9594967,54.5670086],[8.9561852,54.5656233],[8.9568193,54.564765],[8.9559849,54.5641122],[8.9408928,54.5660077],[8.9380687,54.5648315],[8.9353711,54.5614452],[8.9313242,54.5626252],[8.8731513,54.5553119],[8.8699571,54.5603181],[8.8702715,54.5645808],[8.8901238,54.5924851],[8.8892036,54.5930146],[8.8920466,54.5972339],[8.8928269,54.5973633],[8.8864642,54.6083868],[8.8814575,54.6113878],[8.8651482,54.6155312],[8.846088,54.6085347],[8.8469753,54.6077619],[8.8462855,54.6074724],[8.8452038,54.6078217],[8.8460531,54.6085218],[8.8251288,54.6008488],[8.8202388,54.5950336],[8.8185043,54.5948902],[8.8145178,54.5963532],[8.8086618,54.6039261],[8.8175026,54.6018239],[8.823449,54.6044412],[8.8330295,54.6040799],[8.8648106,54.6156783],[8.8468432,54.6253027],[8.8321669,54.6469165],[8.8272548,54.6494999],[8.8276693,54.6498777],[8.8070268,54.6568646],[8.8018487,54.6606716],[8.7795897,54.6665286],[8.7538557,54.6814409],[8.7513589,54.6814713],[8.7695142,54.6840822],[8.8113274,54.6862637],[8.8232468,54.69298],[8.824956,54.6923515],[8.8252371,54.6936582],[8.8269346,54.6946136],[8.8337277,54.6934292],[8.8406085,54.6878088],[8.8447277,54.6876395],[8.8479715,54.6890925],[8.8551815,54.6975602],[8.8516902,54.7027156],[8.850205,54.7095481],[8.8488178,54.7106754],[8.8661733,54.7132616],[8.8659326,54.714471],[8.8646583,54.7138997],[8.8625883,54.7165688],[8.8656044,54.7190166],[8.8694033,54.7192517],[8.8770187,54.7214114],[8.8830086,54.7210155],[8.8891646,54.7194399],[8.8955609,54.7200764],[8.9302915,54.7285762],[8.93691,54.7308884],[8.9367767,54.7287638],[8.938981,54.7272299],[8.9447485,54.7276179],[8.9509948,54.7260974],[8.9508397,54.7234109],[8.9516975,54.7220824],[8.9570899,54.7196158],[8.9589692,54.7161427],[8.9660518,54.7118635],[8.9696259,54.7115072],[8.9856574,54.7130478],[8.9892987,54.7122511],[8.9963228,54.7088746],[9.0104676,54.7077988],[9.014186,54.7062892],[9.0219132,54.7003416],[9.0275084,54.6976646],[9.0319755,54.6959539],[9.0402019,54.6952806],[9.0433179,54.6942145],[9.0504799,54.6947561],[9.0535507,54.6980638],[9.0635318,54.7012336],[9.0623032,54.7006719],[9.0691832,54.6981112],[9.0735795,54.6978363],[9.0758431,54.6963944],[9.0808183,54.6970394],[9.0857055,54.6963215],[9.0917876,54.6933958],[9.095675,54.6937088],[9.1053834,54.69221],[9.1114384,54.692946],[9.1243474,54.6905273],[9.126955,54.6915722],[9.1434613,54.6926711],[9.1462288,54.6982945],[9.1474686,54.6998813],[9.1491903,54.7000143],[9.1495582,54.7010672],[9.1624651,54.7011742],[9.1681512,54.6998884],[9.1681552,54.6992554],[9.1721186,54.6992625],[9.1686882,54.6921672],[9.1675034,54.6927592],[9.1661147,54.6908974],[9.1673495,54.6866479],[9.1722338,54.6827143],[9.1754313,54.6775729],[9.177599,54.6696568],[9.1875145,54.6607498],[9.22266,54.6477754],[9.2135756,54.6416571],[9.2115869,54.6415851],[9.2114069,54.6396623],[9.2140675,54.6357178],[9.2070427,54.6327841],[9.2069077,54.6314452],[9.2216794,54.6287446],[9.2319778,54.6239642],[9.2321348,54.6200966],[9.2415214,54.6144353],[9.2419694,54.607813],[9.250253,54.6073091],[9.250575,54.6062952],[9.2539525,54.6037885],[9.2605124,54.6031626],[9.2658466,54.6039525],[9.2669634,54.6033266],[9.2674773,54.6024647],[9.2664635,54.6023157],[9.2665175,54.599894],[9.2623102,54.599673],[9.2600196,54.5983681],[9.2549664,54.5982991],[9.2555864,54.5889422],[9.2573531,54.5885942],[9.2551655,54.5842537],[9.2503593,54.5786683],[9.2624404,54.5748428],[9.2691724,54.5744149],[9.2851168,54.5714553],[9.2923584,54.5605974],[9.297671,54.5603736],[9.3012264,54.5619604],[9.3066345,54.5601136],[9.3107589,54.5596947],[9.3114938,54.556475],[9.3110379,54.5531404],[9.2927969,54.5364534],[9.2862072,54.5405046],[9.2826275,54.5415472],[9.266719,54.5457962],[9.2562101,54.5469693],[9.2430172,54.5408443],[9.2340063,54.5409573],[9.2300701,54.543853],[9.2259695,54.5445858],[9.2227423,54.5439823],[9.2166201,54.544385],[9.2091586,54.5483465],[9.2078718,54.5506783],[9.2091451,54.553507],[9.2078463,54.5550113],[9.1995206,54.558165],[9.1926409,54.5582107],[9.1817369,54.5605591],[9.1724159,54.5460184],[9.1652017,54.5431665],[9.1630032,54.545315],[9.1626805,54.5484066],[9.1608613,54.5493561],[9.157175,54.5496678],[9.1491556,54.5472418],[9.1453271,54.5478611],[9.144227,54.5483177],[9.1443241,54.5497251],[9.1399778,54.5513076],[9.1345734,54.5547988],[9.1261974,54.5533753],[9.1214248,54.5505588],[9.1056767,54.548345],[9.0996499,54.5490214],[9.0935906,54.5519819],[9.0964113,54.55293],[9.1154331,54.5661984],[9.1143255,54.5719271],[9.1013505,54.5713194],[9.1014551,54.5730254],[9.0990819,54.5797783],[9.0987705,54.584746],[9.1021177,54.5937858],[9.1197334,54.6204474],[9.1098377,54.6215071],[9.0989915,54.6247941],[9.0934409,54.6244973],[9.0846323,54.6263226],[9.0793446,54.6245916],[9.0758479,54.6224961],[9.0659666,54.622203],[9.0454095,54.619766],[9.0236059,54.6162168],[9.0205998,54.6117907],[9.0200208,54.6085603],[9.0190323,54.6085848],[9.0175934,54.6060604],[9.0164693,54.6061509],[9.0161155,54.6021737],[9.0165362,54.6007496],[9.0223355,54.6006759],[9.0274239,54.5975032],[9.0254721,54.5965182],[9.02563,54.5956834],[9.0300944,54.5931937],[9.0233459,54.5886283],[9.022002,54.5869209],[9.0226613,54.5858789],[9.0286473,54.582792],[9.0270761,54.5785173],[9.0299374,54.5723409],[9.0211731,54.5660547],[9.0021013,54.5662683],[8.9967747,54.5653601]]]}},{"type":"Feature","properties":{"dialect":"frr-x-midgoes","label":"Mittelgoesharder"},"geometry":{"type":"Polygon","coordinates":[[[9.1013505,54.5713194],[9.1143255,54.5719271],[9.1154331,54.5661984],[9.0952827,54.552209],[9.0851978,54.5522809],[9.0804221,54.5501603],[9.0738649,54.5516027],[9.0604269,54.5503226],[9.0477079,54.5516013],[9.0438429,54.5563067],[9.0447025,54.5602931],[9.0425809,54.5643226],[9.0311208,54.566788],[9.0211731,54.5660547],[9.0299374,54.5723409],[9.0270761,54.5785173],[9.0286473,54.582792],[9.0226613,54.5858789],[9.022002,54.5869209],[9.0233459,54.5886283],[9.0300944,54.5931937],[9.02563,54.5956834],[9.0254721,54.5965182],[9.0274239,54.5975032],[9.0227306,54.6004857],[9.0165362,54.6007496],[9.0164693,54.6061509],[9.0175934,54.6060604],[9.0190323,54.6085848],[9.0200208,54.6085603],[9.0205998,54.6117907],[9.0236059,54.6162168],[9.0454095,54.619766],[9.0659666,54.622203],[9.0758479,54.6224961],[9.0793446,54.6245916],[9.0846323,54.6263226],[9.0934409,54.6244973],[9.0989915,54.6247941],[9.1098377,54.6215071],[9.1197334,54.6204474],[9.1021177,54.5937858],[9.0990922,54.5858646],[9.0990819,54.5797783],[9.1014551,54.5730254],[9.1013505,54.5713194]]]}},{"type":"Feature","properties":{"dialect":"frr-x-suedgoes","label":"Südergoesharder"},"geometry":{"type":"Polygon","coordinates":[[[9.1524472,54.3853865],[9.137719,54.3848106],[9.1382915,54.3967513],[9.1326649,54.3956942],[9.1275656,54.3982794],[9.1137461,54.402401],[9.110568,54.4063577],[9.1106165,54.4110872],[9.1025329,54.4173184],[9.0987262,54.4165913],[9.0927928,54.4136201],[9.0822708,54.4179275],[9.0744545,54.4137368],[9.0672704,54.41607],[9.064855,54.4209046],[9.0656382,54.4246903],[9.0644807,54.4251968],[9.0604046,54.4211792],[9.0595043,54.4229406],[9.0608696,54.4247709],[9.062314,54.4243335],[9.0633528,54.4256458],[9.0525953,54.4300909],[9.0530984,54.4308924],[9.0450644,54.435591],[9.0427105,54.4335763],[9.0325763,54.4336431],[9.0186301,54.4281295],[9.0174011,54.428157],[9.0093879,54.4342796],[9.0091231,54.4354543],[9.0121362,54.4365059],[9.0145318,54.439782],[9.0231088,54.4447132],[9.0216989,54.446867],[9.0184238,54.4494457],[9.0193252,54.4504234],[9.0184364,54.4522144],[9.0248952,54.4594331],[9.0284348,54.468894],[9.0292599,54.4686782],[9.0278593,54.4645606],[9.0296295,54.4641214],[9.0348685,54.4669143],[9.0401269,54.4634527],[9.0422562,54.4646487],[9.042252,54.4656139],[9.043635,54.4666877],[9.0384578,54.4691671],[9.0393861,54.469797],[9.0435004,54.4710535],[9.0467296,54.4690255],[9.0508483,54.4698359],[9.052475,54.4676598],[9.0574041,54.465019],[9.0714167,54.4625532],[9.0846084,54.4584211],[9.0864053,54.4637741],[9.0867585,54.469019],[9.091694,54.467281],[9.0954655,54.4731465],[9.0974139,54.4729841],[9.0989633,54.4754439],[9.0908698,54.4784337],[9.0917743,54.4807707],[9.0930631,54.4812845],[9.0926045,54.48353],[9.0950389,54.4870664],[9.0966861,54.4881811],[9.0970861,54.4912438],[9.0983303,54.4913629],[9.1016471,54.504084],[9.0471285,54.5003266],[9.0457636,54.5010733],[9.047574,54.5056189],[9.0400887,54.5073991],[9.0405158,54.5068245],[9.0372381,54.5050679],[9.0243948,54.5089446],[9.0238868,54.5098326],[9.0211516,54.5103882],[9.0177638,54.5128247],[9.012193,54.5145466],[9.0100429,54.5201212],[9.0078601,54.5208603],[9.0002512,54.519184],[8.9917778,54.5199499],[8.9908985,54.5233444],[8.9826983,54.5254621],[8.9590287,54.5180863],[8.9313999,54.5412841],[8.9265746,54.5410197],[8.9066346,54.5437102],[8.8991324,54.5430506],[8.8921155,54.540904],[8.8776504,54.5426676],[8.8770489,54.5475007],[8.8731513,54.5553119],[8.9313242,54.5626252],[8.9353711,54.5614452],[8.9380687,54.5648315],[8.9407343,54.5659976],[8.9559849,54.5641122],[8.9568193,54.564765],[8.9561852,54.5656233],[8.9594967,54.5670086],[8.9614547,54.5654619],[8.9605053,54.5643838],[8.9652338,54.5603513],[8.9848312,54.5588604],[8.9913726,54.5598169],[8.9949084,54.5629094],[8.9962043,54.5650574],[8.9980279,54.5656845],[9.0311208,54.566788],[9.0432278,54.5638642],[9.0447173,54.5601687],[9.0436631,54.5577968],[9.0438429,54.5563067],[9.0469985,54.5520384],[9.0482068,54.5514714],[9.0604269,54.5503226],[9.0738649,54.5516027],[9.0804221,54.5501603],[9.0851978,54.5522809],[9.0928911,54.5521069],[9.0996499,54.5490214],[9.1056767,54.548345],[9.1227824,54.5508377],[9.1261974,54.5533753],[9.1345734,54.5547988],[9.1399778,54.5513076],[9.1443241,54.5497251],[9.144227,54.5483177],[9.1453271,54.5478611],[9.1491556,54.5472418],[9.157175,54.5496678],[9.1608613,54.5493561],[9.1626805,54.5484066],[9.1630032,54.545315],[9.1652017,54.5431665],[9.1724159,54.5460184],[9.1817369,54.5605591],[9.1926409,54.5582107],[9.1995206,54.558165],[9.2078463,54.5550113],[9.2091451,54.553507],[9.2078718,54.5506783],[9.2091586,54.5483465],[9.2162701,54.5444687],[9.2227423,54.5439823],[9.2259695,54.5445858],[9.2300701,54.543853],[9.2340063,54.5409573],[9.2430172,54.5408443],[9.2562101,54.5469693],[9.266719,54.5457962],[9.2862072,54.5405046],[9.2923339,54.5369672],[9.2946379,54.5335637],[9.3010727,54.5324377],[9.3041577,54.5307013],[9.3011597,54.5293366],[9.2988352,54.5255795],[9.2923182,54.5223258],[9.2903856,54.5195221],[9.2807292,54.5150356],[9.2829972,54.511662],[9.2861885,54.4973276],[9.2998581,54.4911051],[9.3006033,54.485498],[9.308956,54.4805436],[9.3121006,54.4778538],[9.3113175,54.4775872],[9.3036742,54.4775245],[9.2996913,54.4784221],[9.2874641,54.4817303],[9.2746636,54.4866666],[9.2740869,54.4861641],[9.2593008,54.4884094],[9.2179726,54.4910972],[9.1957339,54.4905847],[9.186219,54.4914755],[9.182411,54.4902521],[9.1803782,54.4879154],[9.1700808,54.4857222],[9.1731422,54.4807905],[9.1690482,54.4652666],[9.1742166,54.4656254],[9.1806998,54.4638588],[9.1878383,54.4632991],[9.2074537,54.4655003],[9.2073273,54.466573],[9.217678,54.4688335],[9.2171984,54.4702839],[9.2197386,54.4705961],[9.2267136,54.4762382],[9.2337115,54.4751811],[9.2412139,54.4712923],[9.2761237,54.466237],[9.294357,54.469204],[9.3033288,54.4693357],[9.30369,54.4684345],[9.3068217,54.4681385],[9.3107794,54.4638581],[9.3121151,54.4611486],[9.3209954,54.4607917],[9.3258456,54.4578156],[9.3271245,54.455906],[9.3272002,54.4537187],[9.3257754,54.4523756],[9.3273995,54.4478013],[9.3231133,54.4448145],[9.3239324,54.4421963],[9.3185446,54.4384378],[9.3141559,54.4391127],[9.3135537,54.4370873],[9.3093817,54.4360654],[9.3111769,54.4322196],[9.3098587,54.4306119],[9.3002024,54.4308149],[9.293999,54.4260157],[9.2900077,54.4246388],[9.2897307,54.4236699],[9.2916414,54.421973],[9.2911314,54.4212783],[9.2850275,54.4188514],[9.2811688,54.4200527],[9.2794694,54.4196983],[9.2790205,54.4189814],[9.2808312,54.4160287],[9.2751512,54.413229],[9.2787166,54.4099634],[9.2733365,54.4077097],[9.2717438,54.4062408],[9.2737025,54.4032532],[9.2686283,54.4020523],[9.2699761,54.4003165],[9.2695742,54.3993516],[9.2638381,54.3994046],[9.2636352,54.3985686],[9.2652279,54.3969178],[9.2652889,54.395834],[9.2617815,54.3946021],[9.2607177,54.3928163],[9.2579122,54.3914734],[9.2581891,54.3905465],[9.2620085,54.3892227],[9.2619076,54.3874149],[9.2632574,54.3851982],[9.25947,54.3833293],[9.2569544,54.3798957],[9.2603529,54.377531],[9.2584232,54.3754482],[9.2616547,54.3751353],[9.2640119,54.3727788],[9.2609269,54.3713127],[9.2572675,54.3710197],[9.2528192,54.3722556],[9.2407601,54.3731404],[9.2358399,54.3756391],[9.2304417,54.3757911],[9.2239117,54.3801636],[9.2197944,54.3798846],[9.2138543,54.3809754],[9.2127625,54.3816734],[9.2122715,54.384707],[9.2097499,54.3860879],[9.2075393,54.3855039],[9.2083172,54.3826622],[9.2029392,54.3816099],[9.1983843,54.3843489],[9.1913667,54.3836663],[9.1898472,54.384306],[9.1884901,54.3869426],[9.1872708,54.3874728],[9.1798227,54.3868683],[9.1775858,54.3884905],[9.1769122,54.3908722],[9.1711737,54.3908438],[9.1689345,54.3897042],[9.1625773,54.3891191],[9.1524472,54.3853865]]]}},{"type":"Feature","properties":{"dialect":"frr-x-fering","label":"Fering"},"geometry":{"type":"Polygon","coordinates":[[[8.4527024,54.6924337],[8.4334683,54.6936423],[8.4237931,54.6955026],[8.4022094,54.7013544],[8.396923,54.7054871],[8.3951906,54.7104834],[8.3972567,54.7195791],[8.4048287,54.7300454],[8.4114771,54.7371934],[8.4203601,54.7427394],[8.4251703,54.7441497],[8.4272897,54.7460329],[8.4334892,54.7467363],[8.4376781,54.7483135],[8.4474891,54.7490116],[8.4516397,54.7480732],[8.4568067,54.7495171],[8.4621299,54.7499033],[8.4673136,54.751869],[8.4728537,54.7523424],[8.4786756,54.7519833],[8.4789999,54.7506528],[8.4817657,54.7490697],[8.4957033,54.751121],[8.5059127,54.7515719],[8.5103604,54.7528714],[8.51186,54.7526444],[8.5118975,54.7512927],[8.5156684,54.7511144],[8.5183185,54.7516664],[8.5207252,54.7555338],[8.5371271,54.7554692],[8.5676618,54.7506379],[8.5832775,54.7447638],[8.5861366,54.7419604],[8.5867795,54.7382596],[8.5853578,54.7330495],[8.5820468,54.7307239],[8.5816725,54.7284419],[8.58562,54.7253536],[8.5924876,54.7226498],[8.5970397,54.7187206],[8.5950039,54.7172131],[8.5851528,54.7134441],[8.5806983,54.7088648],[8.5791133,54.7055355],[8.5749223,54.7014157],[8.5758627,54.696472],[8.5786932,54.6943512],[8.5781455,54.692485],[8.5729103,54.6907716],[8.5704255,54.6878269],[8.567331,54.6814341],[8.5634237,54.6798385],[8.5522855,54.6794843],[8.5308294,54.681955],[8.5224904,54.6803803],[8.510173,54.6816516],[8.5013909,54.6802665],[8.4851714,54.6800866],[8.4651979,54.6843936],[8.4617545,54.6859624],[8.4527024,54.6924337]]]}},{"type":"Feature","properties":{"dialect":"frr-x-oomrang","label":"Öömrang"},"geometry":{"type":"Polygon","coordinates":[[[8.3795839,54.6327179],[8.3842456,54.6318311],[8.384445,54.6305325],[8.3834237,54.6297436],[8.3867092,54.6276452],[8.3959954,54.6277196],[8.3964629,54.6290298],[8.3977998,54.629252],[8.4002196,54.6287974],[8.4022699,54.6269248],[8.4013452,54.626078],[8.3948972,54.6245828],[8.3854441,54.6239793],[8.361352,54.6226122],[8.3543932,54.6241683],[8.3470001,54.6304434],[8.3398566,54.6342843],[8.3320037,54.6406207],[8.3296305,54.6415833],[8.3285464,54.6451287],[8.3053699,54.663289],[8.3041551,54.6645513],[8.3038212,54.6667148],[8.3078927,54.6712534],[8.3136267,54.6798523],[8.3336154,54.7001356],[8.3422041,54.7055215],[8.354631,54.710065],[8.3585003,54.7098243],[8.3520054,54.7042581],[8.342415,54.6992879],[8.3389183,54.6948836],[8.3384316,54.6924421],[8.3361498,54.6900763],[8.3362031,54.6890475],[8.3389809,54.6828709],[8.3421188,54.680126],[8.3501906,54.6754279],[8.3553859,54.6645559],[8.3554949,54.6618401],[8.3597755,54.6573742],[8.3595286,54.6553185],[8.3610298,54.6494678],[8.3658274,54.6470057],[8.3730316,54.6459644],[8.3783653,54.6416536],[8.3804211,54.6409283],[8.3813438,54.6400527],[8.3806524,54.6394453],[8.3830575,54.6391196],[8.380549,54.6393489],[8.3798136,54.6385186],[8.3790345,54.6351409],[8.3795839,54.6327179]]]}},{"type":"Feature","properties":{"dialect":"frr-x-solring","label":"Sölring"},"geometry":{"type":"Polygon","coordinates":[[[8.2951235,54.7938459],[8.2919905,54.7858161],[8.2938983,54.7780014],[8.2998536,54.7735562],[8.3004993,54.7677807],[8.2993261,54.7680194],[8.300472,54.7669893],[8.2998171,54.7652543],[8.3003847,54.7636802],[8.2989968,54.7635169],[8.2964583,54.760069],[8.2966328,54.7589656],[8.2984176,54.7590663],[8.2977562,54.7580997],[8.2949348,54.7573623],[8.293603,54.7550453],[8.2947118,54.748053],[8.2982943,54.7438335],[8.2978851,54.7424771],[8.2915934,54.740702],[8.2881261,54.7419387],[8.2796382,54.752359],[8.2785095,54.7524234],[8.2787369,54.7552592],[8.2803023,54.7552379],[8.279225,54.7558513],[8.278988,54.7575732],[8.2801849,54.7650454],[8.2813534,54.7925885],[8.2885474,54.8805603],[8.2909312,54.890806],[8.2994983,54.9133854],[8.3257333,54.955727],[8.3333194,54.9649462],[8.3324199,54.9652776],[8.3487545,54.9854697],[8.3607483,55.0047794],[8.3633945,55.0065299],[8.3710069,55.0189773],[8.3753224,55.0235237],[8.3783316,55.0307197],[8.3830362,55.0375772],[8.3867765,55.0404398],[8.3923654,55.0486494],[8.3976215,55.05301],[8.4035062,55.0552788],[8.4068267,55.0556469],[8.4113644,55.0580395],[8.4194346,55.0588177],[8.4228661,55.0581207],[8.4289793,55.0549682],[8.4409426,55.0518724],[8.4432419,55.0506403],[8.4634393,55.0466461],[8.4640227,55.0455522],[8.4470095,55.0434717],[8.4361772,55.0480693],[8.4318895,55.0490232],[8.4224562,55.0469856],[8.4182474,55.0477425],[8.4014166,55.0469842],[8.3954901,55.0457472],[8.3950874,55.0444132],[8.3969432,55.0421304],[8.3973732,55.0384253],[8.3995565,55.0351034],[8.4056739,55.0341839],[8.4188101,55.0349382],[8.4235559,55.03398],[8.431116,55.0254016],[8.4397852,55.0231102],[8.4405155,55.0220651],[8.4393306,55.020421],[8.4393564,55.0182039],[8.4411371,55.0167559],[8.4390086,55.0155488],[8.4322419,55.0145909],[8.4175898,55.0087165],[8.4171083,55.0076865],[8.3969928,55.0044368],[8.3803458,54.997059],[8.3724489,54.9912694],[8.3600724,54.9742013],[8.3557863,54.9711974],[8.3517298,54.9669384],[8.3570206,54.9635317],[8.3595577,54.9585148],[8.3614578,54.957024],[8.3601999,54.9558057],[8.3585718,54.9512714],[8.3643978,54.9429568],[8.3608514,54.9385529],[8.3597357,54.9342314],[8.3609841,54.9317153],[8.3605736,54.9303049],[8.3625544,54.9269505],[8.3617096,54.9233592],[8.3641058,54.9229196],[8.3664431,54.924025],[8.3608576,54.9191831],[8.3607861,54.9177621],[8.3634471,54.9152603],[8.3621085,54.9142835],[8.3624693,54.9091946],[8.3677066,54.9017629],[8.3757474,54.895019],[8.3759709,54.8939289],[8.3830825,54.8909009],[8.3931302,54.8891216],[8.4100557,54.8822325],[8.4252834,54.8777432],[8.4410499,54.8765397],[8.446803,54.8774999],[8.4619702,54.8768248],[8.4692903,54.8778654],[8.4837916,54.8758597],[8.4838807,54.8748064],[8.5032456,54.881304],[8.512139,54.8830893],[8.5658222,54.8848119],[8.5168724,54.8830636],[8.5049957,54.8812713],[8.4833919,54.8740066],[8.4784295,54.8702623],[8.4559879,54.8598643],[8.4446328,54.8583926],[8.4357414,54.8547644],[8.4262166,54.855222],[8.4230256,54.8545375],[8.4200033,54.8521781],[8.4224947,54.8502859],[8.4224917,54.8493846],[8.4193925,54.8475774],[8.4159134,54.8470432],[8.4115438,54.8470578],[8.4023387,54.8487374],[8.3920444,54.8537208],[8.380819,54.8573425],[8.3741151,54.8622871],[8.3648686,54.8757595],[8.346969,54.8763954],[8.3405357,54.8814202],[8.3327932,54.8726312],[8.3338206,54.8659787],[8.3323854,54.8636494],[8.3284638,54.8619851],[8.3073778,54.8590906],[8.3040287,54.856638],[8.308025,54.8555445],[8.3034708,54.8563499],[8.3021351,54.8552649],[8.3019138,54.8524219],[8.2991304,54.8496666],[8.2987824,54.8451905],[8.2959055,54.8426193],[8.2968685,54.8355535],[8.293783,54.8273096],[8.2957082,54.8213319],[8.2995609,54.8171733],[8.2983575,54.8137854],[8.2963177,54.8124322],[8.2989404,54.8070353],[8.2996061,54.8025769],[8.2981834,54.8007603],[8.2974111,54.8011463],[8.2951985,54.7998373],[8.29417,54.796746],[8.2951235,54.7938459]]]}},{"type":"Feature","properties":{"dialect":"frr-x-hallig","label":"Halligfriesisch"},"geometry":{"type":"MultiPolygon","coordinates":[[[[8.5620858,54.4640307],[8.5576884,54.4610123],[8.5516804,54.4596045],[8.5498944,54.4601798],[8.5449529,54.4655238],[8.5477329,54.4685305],[8.5491387,54.4682485],[8.5489337,54.4676846],[8.5494476,54.4681835],[8.5520212,54.4676196],[8.5516893,54.4670656],[8.5517583,54.4646549],[8.5522032,54.4675926],[8.5577613,54.4660588],[8.5573402,54.4655629],[8.5579143,54.4660438],[8.5603919,54.4652389],[8.559991,54.4646479],[8.5619935,54.4646831],[8.5620858,54.4640307]]],[[[8.5167202,54.5287298],[8.5083186,54.527166],[8.5072135,54.5275004],[8.5131494,54.5295878],[8.5167202,54.5287298]]],[[[8.5455293,54.5768025],[8.5490458,54.5788227],[8.5519804,54.5791454],[8.5571921,54.5781485],[8.5621428,54.5755095],[8.5602183,54.576159],[8.5613722,54.5725478],[8.5652024,54.5684467],[8.5675963,54.5668451],[8.5732885,54.565137],[8.5735296,54.5610809],[8.5719584,54.5590525],[8.574002,54.5584577],[8.5719198,54.5590018],[8.5632159,54.5571685],[8.5483878,54.5571728],[8.5441914,54.5588738],[8.5412707,54.5621923],[8.5366421,54.5653574],[8.5284586,54.5667967],[8.5233384,54.5694667],[8.5153923,54.5706974],[8.5114045,54.5735088],[8.5089125,54.5768325],[8.5119396,54.5784734],[8.5151085,54.5789217],[8.5321377,54.5749588],[8.5455293,54.5768025]]],[[[8.6632844,54.6558142],[8.6636454,54.6527114],[8.6597645,54.6480106],[8.6606063,54.6467452],[8.6624207,54.6466567],[8.6605581,54.6464858],[8.6549537,54.642141],[8.6508296,54.6415889],[8.649454,54.6400726],[8.6470456,54.6392074],[8.6328715,54.6382659],[8.6323193,54.6379794],[8.633319,54.6373025],[8.629654,54.6363794],[8.6233303,54.6356244],[8.6199144,54.6360605],[8.6159267,54.6343273],[8.6072467,54.6329295],[8.6026343,54.6328354],[8.5966885,54.6357641],[8.5848637,54.6339787],[8.5823905,54.6318497],[8.5760965,54.6303361],[8.5691105,54.626619],[8.5621649,54.6269955],[8.5600869,54.6241653],[8.5546902,54.6225695],[8.5555854,54.6218011],[8.5520949,54.6203562],[8.5486229,54.6201761],[8.5480987,54.6169092],[8.5402731,54.6224958],[8.5295102,54.6255713],[8.5286517,54.6271831],[8.5310114,54.6311897],[8.540439,54.6364702],[8.5538135,54.6356057],[8.565442,54.6370207],[8.5723294,54.6392297],[8.5811665,54.6391906],[8.5887804,54.6408069],[8.6025585,54.6419586],[8.6381185,54.6496174],[8.6452432,54.6524418],[8.6508093,54.6566555],[8.6543703,54.6569522],[8.6632844,54.6558142]]],[[[8.7003115,54.6800629],[8.7129159,54.6801758],[8.7106127,54.6781538],[8.7088322,54.6746292],[8.7119562,54.6727249],[8.6874916,54.6723805],[8.6868885,54.6718086],[8.683601,54.6723801],[8.6813513,54.6752954],[8.6823181,54.6760432],[8.6916618,54.6767606],[8.6955594,54.6782628],[8.6988005,54.6810151],[8.7003115,54.6800629]]],[[[8.7361632,54.4677028],[8.7311322,54.4655111],[8.7291263,54.4627041],[8.7269234,54.4622955],[8.7224784,54.4635707],[8.718442,54.4665447],[8.7266144,54.4678772],[8.7361632,54.4677028]]],[[[8.8200951,54.5433497],[8.8040317,54.5489854],[8.7972445,54.5493162],[8.7982054,54.5500649],[8.7971534,54.5493464],[8.7952857,54.5495192],[8.7893966,54.5519906],[8.8043298,54.5557145],[8.8078729,54.5556597],[8.8207666,54.5509204],[8.8274972,54.5495409],[8.826506,54.5479246],[8.8269404,54.5449471],[8.8245517,54.5433921],[8.8200951,54.5433497]]],[[[8.8469753,54.6077619],[8.8451958,54.6078666],[8.8460531,54.6085218],[8.8251288,54.6008488],[8.8197286,54.594872],[8.8139941,54.5966515],[8.8084849,54.6036648],[8.8175026,54.6018239],[8.823449,54.6044412],[8.8330295,54.6040799],[8.8651482,54.6155312],[8.846088,54.6085347],[8.8469753,54.6077619]]],[[[8.7359649,54.6445847],[8.7378386,54.6432404],[8.740318,54.6436092],[8.7397738,54.6361489],[8.7287376,54.6289518],[8.7193964,54.6274187],[8.7102499,54.6320033],[8.7104036,54.6339918],[8.7147501,54.6396024],[8.7176509,54.6409415],[8.71565,54.6398621],[8.7359649,54.6445847]]],[[[8.766244,54.6364277],[8.7628762,54.6353279],[8.7613599,54.63585],[8.7631488,54.6369568],[8.7688004,54.6380859],[8.7704048,54.6380403],[8.7722447,54.6367408],[8.766244,54.6364277]]]]}},{"type":"Feature","properties":{"dialect":"frr-x-halunder","label":"Halunder"},"geometry":{"type":"Polygon","coordinates":[[[7.887405,54.1771943],[7.890813,54.1699462],[7.8960157,54.1694537],[7.8989522,54.1706508],[7.8995843,54.1719977],[7.908181,54.1693031],[7.9073612,54.1754182],[7.9087462,54.1803323],[7.9067399,54.1823117],[7.9096037,54.1815396],[7.9173704,54.1823936],[7.9177792,54.1833145],[7.9225163,54.1839796],[7.9228368,54.1846732],[7.9178275,54.1873356],[7.9205407,54.1907045],[7.9194565,54.1917432],[7.9204586,54.1906689],[7.9194783,54.1898196],[7.9131237,54.189153],[7.9032712,54.186417],[7.8995782,54.1891837],[7.8912352,54.1931864],[7.8842904,54.191521],[7.8831766,54.1895078],[7.8838934,54.1889968],[7.8829023,54.1883133],[7.8768824,54.1875665],[7.8725415,54.1884769],[7.868551,54.1880511],[7.8651057,54.1907535],[7.8685066,54.1880123],[7.8715142,54.1875542],[7.8734381,54.1858984],[7.8771696,54.1845693],[7.8840766,54.1771817],[7.887405,54.1771943]]]}}]}
